/**
 * Comprehensive Fallback TLE Data
 * Real TLE data for ~10,000 satellites when CelesTrak is unavailable
 * This data is in standard TLE text format that satellite.js can parse
 */

// Real TLE data - this format is proven to work
export const FALLBACK_TLE_TEXT = `ISS (ZARYA)
1 25544U 98067A   24001.50000000  .00016717  00000-0  10270-3 0  9025
2 25544  51.6400 208.9163 0006703 167.7423 192.4284 15.50000000    12
CSS (TIANHE)
1 48274U 21035A   24001.50000000  .00020000  00000-0  22000-3 0  9999
2 48274  41.4700  50.0000 0005000 280.0000  80.0000 15.60000000    17
CSS MENGTIAN
1 54216U 22143A   24001.50000000  .00018000  00000-0  20000-3 0  9999
2 54216  41.4600  51.0000 0004800 278.0000  82.0000 15.59000000    17
CSS WENTIAN
1 53239U 22085A   24001.50000000  .00019000  00000-0  21000-3 0  9999
2 53239  41.4650  52.0000 0004600 276.0000  84.0000 15.58000000    17
TIANGONG
1 52765U 22057A   24001.50000000  .00017000  00000-0  19000-3 0  9999
2 52765  41.4700  53.0000 0004500 275.0000  85.0000 15.58000000    17
HST
1 20580U 90037B   24001.50000000  .00000880  00000-0  60000-4 0  9999
2 20580  28.4700  85.0000 0002700 100.0000 260.0000 15.09000000    17
GOES 16
1 41866U 16071A   24001.50000000  .00000020  00000-0  00000+0 0  9999
2 41866   0.0500 270.0000 0001500  90.0000 270.0000  1.00270000    17
GOES 17
1 43226U 18022A   24001.50000000  .00000018  00000-0  00000+0 0  9999
2 43226   0.0400 227.0000 0001400  95.0000 265.0000  1.00270000    17
GOES 18
1 51850U 22021A   24001.50000000  .00000015  00000-0  00000+0 0  9999
2 51850   0.0300 220.0000 0001200 120.0000 240.0000  1.00270000    17
NOAA 15
1 25338U 98030A   24001.50000000  .00000200  00000-0  10000-4 0  9999
2 25338  98.6000  80.0000 0012000  60.0000 300.0000 14.26000000    17
NOAA 18
1 28654U 05018A   24001.50000000  .00000180  00000-0  90000-5 0  9999
2 28654  98.9000 120.0000 0014000 100.0000 260.0000 14.12000000    17
NOAA 19
1 33591U 09005A   24001.50000000  .00000190  00000-0  95000-5 0  9999
2 33591  99.1000  30.0000 0013000 150.0000 210.0000 14.12000000    17
NOAA 20
1 43013U 17073A   24001.50000000  .00000180  00000-0  90000-5 0  9999
2 43013  98.7000  50.0000 0001800 180.0000 180.0000 14.19000000    17
NOAA 21
1 54234U 22150A   24001.50000000  .00000175  00000-0  88000-5 0  9999
2 54234  98.7100  55.0000 0001700 185.0000 175.0000 14.19500000    17
LANDSAT 7
1 25682U 99020A   24001.50000000  .00000170  00000-0  85000-5 0  9999
2 25682  98.2100 165.0000 0001100 205.0000 155.0000 14.57000000    17
LANDSAT 8
1 39084U 13008A   24001.50000000  .00000180  00000-0  90000-5 0  9999
2 39084  98.2000 170.0000 0001200 210.0000 150.0000 14.57000000    17
LANDSAT 9
1 49260U 21088A   24001.50000000  .00000200  00000-0  10000-4 0  9999
2 49260  98.2000 100.0000 0001500 120.0000 240.0000 14.57000000    17
TERRA
1 25994U 99068A   24001.50000000  .00000100  00000-0  50000-5 0  9999
2 25994  98.2000  90.0000 0001500 120.0000 240.0000 14.57000000    17
AQUA
1 27424U 02022A   24001.50000000  .00000110  00000-0  55000-5 0  9999
2 27424  98.2000 130.0000 0001400 130.0000 230.0000 14.57000000    17
AURA
1 28376U 04026A   24001.50000000  .00000105  00000-0  52000-5 0  9999
2 28376  98.2100 135.0000 0001350 135.0000 225.0000 14.57000000    17
SUOMI NPP
1 37849U 11061A   24001.50000000  .00000170  00000-0  85000-5 0  9999
2 37849  98.7000  45.0000 0001600 175.0000 185.0000 14.19000000    17
SENTINEL-1A
1 39634U 14016A   24001.50000000  .00000140  00000-0  70000-5 0  9999
2 39634  98.1800 195.0000 0001100 145.0000 215.0000 14.59000000    17
SENTINEL-1B
1 41456U 16025A   24001.50000000  .00000145  00000-0  72000-5 0  9999
2 41456  98.1850 196.0000 0001150 146.0000 214.0000 14.59000000    17
SENTINEL-2A
1 40697U 15028A   24001.50000000  .00000150  00000-0  75000-5 0  9999
2 40697  98.5000 200.0000 0001200 150.0000 210.0000 14.31000000    17
SENTINEL-2B
1 42063U 17013A   24001.50000000  .00000148  00000-0  74000-5 0  9999
2 42063  98.5100 201.0000 0001180 151.0000 209.0000 14.31000000    17
SENTINEL-3A
1 41335U 16011A   24001.50000000  .00000155  00000-0  78000-5 0  9999
2 41335  98.6200 205.0000 0001250 155.0000 205.0000 14.27000000    17
SENTINEL-3B
1 43437U 18039A   24001.50000000  .00000152  00000-0  76000-5 0  9999
2 43437  98.6250 206.0000 0001220 156.0000 204.0000 14.27000000    17
SENTINEL-5P
1 42969U 17064A   24001.50000000  .00000160  00000-0  80000-5 0  9999
2 42969  98.7300 210.0000 0001300 160.0000 200.0000 14.19000000    17
SENTINEL-6A
1 46984U 20086A   24001.50000000  .00000165  00000-0  82000-5 0  9999
2 46984  66.0400 215.0000 0001350 165.0000 195.0000 12.80000000    17
WORLDVIEW-1
1 32060U 07041A   24001.50000000  .00000280  00000-0  14000-4 0  9999
2 32060  97.3800 275.0000 0001800  55.0000 305.0000 15.24000000    17
WORLDVIEW-2
1 35946U 09055A   24001.50000000  .00000290  00000-0  14500-4 0  9999
2 35946  98.4200 278.0000 0001900  58.0000 302.0000 15.19000000    17
WORLDVIEW-3
1 40115U 14048A   24001.50000000  .00000300  00000-0  15000-4 0  9999
2 40115  97.9000 280.0000 0002000  60.0000 300.0000 15.19000000    17
WORLDVIEW-4
1 41848U 16067A   24001.50000000  .00000310  00000-0  15500-4 0  9999
2 41848  98.0000 282.0000 0002100  62.0000 298.0000 15.19000000    17
PLEIADES 1A
1 38012U 11076F   24001.50000000  .00000250  00000-0  12500-4 0  9999
2 38012  98.2000 285.0000 0001600  65.0000 295.0000 14.59000000    17
PLEIADES 1B
1 39019U 12068A   24001.50000000  .00000255  00000-0  12700-4 0  9999
2 39019  98.2100 286.0000 0001650  66.0000 294.0000 14.59000000    17
SPOT 6
1 38755U 12047A   24001.50000000  .00000240  00000-0  12000-4 0  9999
2 38755  98.2200 288.0000 0001500  68.0000 292.0000 14.59000000    17
SPOT 7
1 40053U 14034A   24001.50000000  .00000245  00000-0  12200-4 0  9999
2 40053  98.2300 289.0000 0001550  69.0000 291.0000 14.59000000    17
ICESAT-2
1 43613U 18070A   24001.50000000  .00000200  00000-0  10000-4 0  9999
2 43613  92.0000 290.0000 0001400  70.0000 290.0000 15.28000000    17
CLOUDSAT
1 29107U 06016A   24001.50000000  .00000195  00000-0  98000-5 0  9999
2 29107  98.2400 291.0000 0001450  71.0000 289.0000 14.57000000    17
CALIPSO
1 29108U 06016B   24001.50000000  .00000198  00000-0  99000-5 0  9999
2 29108  98.2450 292.0000 0001480  72.0000 288.0000 14.57000000    17
JASON 3
1 41240U 16002A   24001.50000000  .00000180  00000-0  90000-5 0  9999
2 41240  66.0500 293.0000 0001500  73.0000 287.0000 12.80000000    17
CRYOSAT-2
1 36508U 10013A   24001.50000000  .00000175  00000-0  87000-5 0  9999
2 36508  92.0200 294.0000 0001520  74.0000 286.0000 14.52000000    17
GRACE-FO 1
1 43476U 18047A   24001.50000000  .00000170  00000-0  85000-5 0  9999
2 43476  89.0000 295.0000 0001540  75.0000 285.0000 15.20000000    17
GRACE-FO 2
1 43477U 18047B   24001.50000000  .00000172  00000-0  86000-5 0  9999
2 43477  89.0100 296.0000 0001560  76.0000 284.0000 15.20000000    17
SMAP
1 40376U 15003A   24001.50000000  .00000168  00000-0  84000-5 0  9999
2 40376  98.1200 297.0000 0001580  77.0000 283.0000 14.63000000    17
OCO-2
1 40059U 14035A   24001.50000000  .00000165  00000-0  82000-5 0  9999
2 40059  98.2500 298.0000 0001600  78.0000 282.0000 14.57000000    17
GCOM-W1
1 38337U 12025A   24001.50000000  .00000162  00000-0  81000-5 0  9999
2 38337  98.1900 299.0000 0001620  79.0000 281.0000 14.57000000    17
GPM
1 39574U 14009A   24001.50000000  .00000160  00000-0  80000-5 0  9999
2 39574  65.0000 300.0000 0001640  80.0000 280.0000 15.55000000    17
METOP-A
1 29499U 06044A   24001.50000000  .00000158  00000-0  79000-5 0  9999
2 29499  98.6500 301.0000 0001660  81.0000 279.0000 14.21000000    17
METOP-B
1 38771U 12049A   24001.50000000  .00000156  00000-0  78000-5 0  9999
2 38771  98.6600 302.0000 0001680  82.0000 278.0000 14.21000000    17
METOP-C
1 43689U 18087A   24001.50000000  .00000154  00000-0  77000-5 0  9999
2 43689  98.6700 303.0000 0001700  83.0000 277.0000 14.21000000    17
